[{"OBJECT_NAME":"STARLINK-30268","OBJECT_ID":"2023-115L","EPOCH":"2026-03-08T21:07:28.021152","MEAN_MOTION":15.26721238,"ECCENTRICITY":0.00014805,"INCLINATION":43.0036,"RA_OF_ASC_NODE":6.5067,"ARG_OF_PERICENTER":274.3297,"MEAN_ANOMALY":85.7385,"EPHEMERIS_TYPE":0,"CLASSIFICATION_TYPE":"U","NORAD_CAT_ID":57531,"ELEMENT_SET_NO":999,"REV_AT_EPOCH":14222,"BSTAR":-9.336672e-5,"MEAN_MOTION_DOT":-2.762e-5,"MEAN_MOTION_DDOT":0},{"OBJECT_NAME":"FLOCK 4G-17","OBJECT_ID":"2025-009CA","EPOCH":"2026-03-09T22:51:51.984864","MEAN_MOTION":15.27385439,"ECCENTRICITY":0.00036407,"INCLINATION":97.3966,"RA_OF_ASC_NODE":151.0229,"ARG_OF_PERICENTER":339.6132,"MEAN_ANOMALY":20.4962,"EPHEMERIS_TYPE":0,"CLASSIFICATION_TYPE":"U","NORAD_CAT_ID":62681,"ELEMENT_SET_NO":999,"REV_AT_EPOCH":12139,"BSTAR":0.00053710713,"MEAN_MOTION_DOT":0.00014342,"MEAN_MOTION_DDOT":0}]
